start=new Date('2022-04-25T00:00:00.000Z').valueOf();
sats=[{"CLASSIFICATION_TYPE":"U","COUNTRY_CODE":"US","MEAN_ANOMALY":"307.5310","INCLINATION":"53.0544","MEAN_ELEMENT_THEORY":"SGP4","EPOCH":"2022-04-24T19:32:36.169728","OBJECT_NAME":"STARLINK-2340","MEAN_MOTION_DOT":"-0.00000265","APOAPSIS":"548.288","PERIAPSIS":"546.190","MEAN_MOTION_DDOT":"0.0000000000000","ELEMENT_SET_NO":"999","NORAD_CAT_ID":"47882","ARG_OF_PERICENTER":"52.5817","BSTAR":"0.00000110390000","GP_ID":"201947027","REF_FRAME":"TEME","CENTER_NAME":"EARTH","RCS_SIZE":"LARGE","ECCENTRICITY":"0.00015150","MEAN_MOTION":"15.06391771","SITE":"AFETR","EPHEMERIS_TYPE":"0","LAUNCH_DATE":"2021-03-14","DECAY_DATE":null,"REV_AT_EPOCH":"6246","TLE_LINE2":"2 47882  53.0544 143.2420 0001515  52.5817 307.5310 15.06391771 62465","OBJECT_ID":"2021-021Y","RA_OF_ASC_NODE":"143.2420","FILE":"3414543","TLE_LINE1":"1 47882U 21021Y   22114.81430752 -.00000265  00000-0  11039-5 0  9998","OBJECT_TYPE":"PAYLOAD","SEMIMAJOR_AXIS":"6925.374","PERIOD":"95.593","TIME_SYSTEM":"UTC"},{"TLE_LINE2":"2 47883  53.0526 149.5600 0001760  46.7891 313.3245 15.06395183 62995","OBJECT_ID":"2021-021Z","DECAY_DATE":null,"REV_AT_EPOCH":"6299","EPHEMERIS_TYPE":"0","LAUNCH_DATE":"2021-03-14","MEAN_MOTION":"15.06395183","SITE":"AFETR","ECCENTRICITY":"0.00017600","TIME_SYSTEM":"UTC","PERIOD":"95.592","SEMIMAJOR_AXIS":"6925.363","OBJECT_TYPE":"PAYLOAD","FILE":"3414186","TLE_LINE1":"1 47883U 21021Z   22114.52081284  .00000305  00000-0  39405-4 0  9999","RA_OF_ASC_NODE":"149.5600","APOAPSIS":"548.447","MEAN_MOTION_DOT":"0.00000305","OBJECT_NAME":"STARLINK-2342","MEAN_ELEMENT_THEORY":"SGP4","EPOCH":"2022-04-24T12:29:58.229376","INCLINATION":"53.0526","COUNTRY_CODE":"US","MEAN_ANOMALY":"313.3245","CLASSIFICATION_TYPE":"U","CENTER_NAME":"EARTH","RCS_SIZE":"LARGE","REF_FRAME":"TEME","GP_ID":"201936114","BSTAR":"0.00003940500000","ARG_OF_PERICENTER":"46.7891","NORAD_CAT_ID":"47883","ELEMENT_SET_NO":"999","MEAN_MOTION_DDOT":"0.0000000000000","PERIAPSIS":"546.009"},{"TLE_LINE2":"2 47884  53.0555 154.6426 0001768  50.3590 309.7554 15.06395959 62742","OBJECT_ID":"2021-021AA","DECAY_DATE":null,"REV_AT_EPOCH":"6274","EPHEMERIS_TYPE":"0","LAUNCH_DATE":"2021-03-14","MEAN_MOTION":"15.06395959","SITE":"AFETR","ECCENTRICITY":"0.00017680","TIME_SYSTEM":"UTC","PERIOD":"95.592","SEMIMAJOR_AXIS":"6925.361","OBJECT_TYPE":"PAYLOAD","FILE":"3414186","TLE_LINE1":"1 47884U 21021AA  22114.50376114  .00000709  00000-0  66476-4 0  9993","RA_OF_ASC_NODE":"154.6426","APOAPSIS":"548.450","MEAN_MOTION_DOT":"0.00000709","OBJECT_NAME":"STARLINK-2343","MEAN_ELEMENT_THEORY":"SGP4","EPOCH":"2022-04-24T12:05:24.962496","INCLINATION":"53.0555","MEAN_ANOMALY":"309.7554","COUNTRY_CODE":"US","CLASSIFICATION_TYPE":"U","CENTER_NAME":"EARTH","RCS_SIZE":"LARGE","REF_FRAME":"TEME","BSTAR":"0.00006647600000","GP_ID":"201934363","NORAD_CAT_ID":"47884","ARG_OF_PERICENTER":"50.3590","MEAN_MOTION_DDOT":"0.0000000000000","ELEMENT_SET_NO":"999","PERIAPSIS":"546.002"},{"SEMIMAJOR_AXIS":"6925.351","OBJECT_TYPE":"PAYLOAD","FILE":"3414186","TLE_LINE1":"1 47885U 21021AB  22114.49776836 -.00000212  00000-0  47016-5 0  9997","RA_OF_ASC_NODE":"159.6589","TIME_SYSTEM":"UTC","PERIOD":"95.592","MEAN_MOTION":"15.06399115","SITE":"AFETR","ECCENTRICITY":"0.00017470","TLE_LINE2":"2 47885  53.0543 159.6589 0001747  47.3157 312.7979 15.06399115 62830","OBJECT_ID":"2021-021AB","DECAY_DATE":null,"REV_AT_EPOCH":"6283","EPHEMERIS_TYPE":"0","LAUNCH_DATE":"2021-03-14","ELEMENT_SET_NO":"999","MEAN_MOTION_DDOT":"0.0000000000000","PERIAPSIS":"546.006","RCS_SIZE":"LARGE","CENTER_NAME":"EARTH","REF_FRAME":"TEME","BSTAR":"0.00000470160000","GP_ID":"201934613","ARG_OF_PERICENTER":"47.3157","NORAD_CAT_ID":"47885","INCLINATION":"53.0543","MEAN_ANOMALY":"312.7979","COUNTRY_CODE":"US","CLASSIFICATION_TYPE":"U","APOAPSIS":"548.426","MEAN_MOTION_DOT":"-0.00000212","OBJECT_NAME":"STARLINK-2344","EPOCH":"2022-04-24T11:56:47.186304","MEAN_ELEMENT_THEORY":"SGP4"},{"ELEMENT_SET_NO":"999","MEAN_MOTION_DDOT":"0.0000000000000","PERIAPSIS":"545.940","CENTER_NAME":"EARTH","RCS_SIZE":"LARGE","REF_FRAME":"TEME","GP_ID":"201941629","BSTAR":"0.00003769500000","NORAD_CAT_ID":"47886","ARG_OF_PERICENTER":"45.7974","INCLINATION":"53.0552","MEAN_ANOMALY":"314.3166","COUNTRY_CODE":"US","CLASSIFICATION_TYPE":"U","APOAPSIS":"548.489","MEAN_MOTION_DOT":"0.00000280","OBJECT_NAME":"STARLINK-2345","MEAN_ELEMENT_THEORY":"SGP4","EPOCH":"2022-04-24T19:54:26.737632","SEMIMAJOR_AXIS":"6925.349","OBJECT_TYPE":"PAYLOAD","TLE_LINE1":"1 47886U 21021AC  22114.82947613  .00000280  00000-0  37695-4 0  9993","FILE":"3414324","RA_OF_ASC_NODE":"148.1814","TIME_SYSTEM":"UTC","PERIOD":"95.592","SITE":"AFETR","MEAN_MOTION":"15.06399697","ECCENTRICITY":"0.00018410","OBJECT_ID":"2021-021AC","TLE_LINE2":"2 47886  53.0552 148.1814 0001841  45.7974 314.3166 15.06399697 62380","REV_AT_EPOCH":"6238","DECAY_DATE":null,"EPHEMERIS_TYPE":"0","LAUNCH_DATE":"2021-03-14"},{"MEAN_MOTION_DDOT":"0.0000000000000","ELEMENT_SET_NO":"999","PERIAPSIS":"546.121","RCS_SIZE":"LARGE","CENTER_NAME":"EARTH","REF_FRAME":"TEME","BSTAR":"0.00006293500000","GP_ID":"201947043","NORAD_CAT_ID":"47887","ARG_OF_PERICENTER":"52.6498","INCLINATION":"53.0529","MEAN_ANOMALY":"307.4633","COUNTRY_CODE":"US","CLASSIFICATION_TYPE":"U","APOAPSIS":"548.286","MEAN_MOTION_DOT":"0.00000656","OBJECT_NAME":"STARLINK-2346","MEAN_ELEMENT_THEORY":"SGP4","EPOCH":"2022-04-24T14:07:29.480160","SEMIMAJOR_AXIS":"6925.339","OBJECT_TYPE":"PAYLOAD","TLE_LINE1":"1 47887U 21021AD  22114.58853565  .00000656  00000-0  62935-4 0  9991","FILE":"3414570","RA_OF_ASC_NODE":"154.2497","TIME_SYSTEM":"UTC","PERIOD":"95.592","SITE":"AFETR","MEAN_MOTION":"15.06403270","ECCENTRICITY":"0.00015630","OBJECT_ID":"2021-021AD","TLE_LINE2":"2 47887  53.0529 154.2497 0001563  52.6498 307.4633 15.06403270 62283","REV_AT_EPOCH":"6228","DECAY_DATE":null,"LAUNCH_DATE":"2021-03-14","EPHEMERIS_TYPE":"0"},{"MEAN_MOTION_DOT":"0.00003098","APOAPSIS":"548.686","MEAN_ELEMENT_THEORY":"SGP4","EPOCH":"2022-04-24T19:27:17.684640","OBJECT_NAME":"STARLINK-2348","MEAN_ANOMALY":"323.0065","COUNTRY_CODE":"US","INCLINATION":"53.0550","CLASSIFICATION_TYPE":"U","REF_FRAME":"TEME","CENTER_NAME":"EARTH","RCS_SIZE":"LARGE","NORAD_CAT_ID":"47888","ARG_OF_PERICENTER":"37.1068","BSTAR":"0.00022684000000","GP_ID":"201947045","PERIAPSIS":"545.780","ELEMENT_SET_NO":"999","MEAN_MOTION_DDOT":"0.0000000000000","TLE_LINE2":"2 47888  53.0550 143.2619 0002098  37.1068 323.0065 15.06393760 62462","OBJECT_ID":"2021-021AE","LAUNCH_DATE":"2021-03-14","EPHEMERIS_TYPE":"0","DECAY_DATE":null,"REV_AT_EPOCH":"6246","MEAN_MOTION":"15.06393760","SITE":"AFETR","ECCENTRICITY":"0.00020980","TIME_SYSTEM":"UTC","PERIOD":"95.593","OBJECT_TYPE":"PAYLOAD","SEMIMAJOR_AXIS":"6925.368","RA_OF_ASC_NODE":"143.2619","FILE":"3414570","TLE_LINE1":"1 47888U 21021AE  22114.81062135  .00003098  00000-0  22684-3 0  9992"},{"PERIOD":"95.592","TIME_SYSTEM":"UTC","RA_OF_ASC_NODE":"144.6997","FILE":"3414186","TLE_LINE1":"1 47889U 21021AF  22114.48993317 -.00000867  00000-0 -39277-4 0  9991","OBJECT_TYPE":"PAYLOAD","SEMIMAJOR_AXIS":"6925.334","LAUNCH_DATE":"2021-03-14","EPHEMERIS_TYPE":"0","DECAY_DATE":null,"REV_AT_EPOCH":"6294","TLE_LINE2":"2 47889  53.0546 144.6997 0001946  41.4848 318.6289 15.06404792 62946","OBJECT_ID":"2021-021AF","ECCENTRICITY":"0.00019460","MEAN_MOTION":"15.06404792","SITE":"AFETR","ARG_OF_PERICENTER":"41.4848","NORAD_CAT_ID":"47889","BSTAR":"-0.00003927700000","GP_ID":"201935113","REF_FRAME":"TEME","CENTER_NAME":"EARTH","RCS_SIZE":"LARGE","PERIAPSIS":"545.851","MEAN_MOTION_DDOT":"0.0000000000000","ELEMENT_SET_NO":"999","EPOCH":"2022-04-24T11:45:30.225888","MEAN_ELEMENT_THEORY":"SGP4","OBJECT_NAME":"STARLINK-2349","MEAN_MOTION_DOT":"-0.00000867","APOAPSIS":"548.547","CLASSIFICATION_TYPE":"U","MEAN_ANOMALY":"318.6289","COUNTRY_CODE":"US","INCLINATION":"53.0546"},{"MEAN_MOTION":"15.42169577","SITE":"AFETR","ECCENTRICITY":"0.00020720","TLE_LINE2":"2 47890  53.0540 109.2425 0002072 328.5107  31.5773 15.42169577 62930","OBJECT_ID":"2021-021AG","LAUNCH_DATE":"2021-03-14","EPHEMERIS_TYPE":"0","DECAY_DATE":null,"REV_AT_EPOCH":"6293","OBJECT_TYPE":"PAYLOAD","SEMIMAJOR_AXIS":"6817.844","RA_OF_ASC_NODE":"109.2425","FILE":"3414237","TLE_LINE1":"1 47890U 21021AG  22114.69894106  .00017547  00000-0  41158-3 0  9993","TIME_SYSTEM":"UTC","PERIOD":"93.375","COUNTRY_CODE":"US","MEAN_ANOMALY":"31.5773","INCLINATION":"53.0540","CLASSIFICATION_TYPE":"U","MEAN_MOTION_DOT":"0.00017547","APOAPSIS":"441.122","EPOCH":"2022-04-24T16:46:28.507584","MEAN_ELEMENT_THEORY":"SGP4","OBJECT_NAME":"STARLINK-2350","PERIAPSIS":"438.297","MEAN_MOTION_DDOT":"0.0000000000000","ELEMENT_SET_NO":"999","REF_FRAME":"TEME","RCS_SIZE":"LARGE","CENTER_NAME":"EARTH","NORAD_CAT_ID":"47890","ARG_OF_PERICENTER":"328.5107","GP_ID":"201939552","BSTAR":"0.00041158000000"},{"OBJECT_NAME":"STARLINK-2351","EPOCH":"2022-04-24T19:52:29.593920","MEAN_ELEMENT_THEORY":"SGP4","APOAPSIS":"548.408","MEAN_MOTION_DOT":"0.00001211","CLASSIFICATION_TYPE":"U","INCLINATION":"53.0537","MEAN_ANOMALY":"305.2238","COUNTRY_CODE":"US","GP_ID":"201942136","BSTAR":"0.00010018000000","NORAD_CAT_ID":"47891","ARG_OF_PERICENTER":"54.8916","RCS_SIZE":"LARGE","CENTER_NAME":"EARTH","REF_FRAME":"TEME","ELEMENT_SET_NO":"999","MEAN_MOTION_DDOT":"0.0000000000000","PERIAPSIS":"545.971","DECAY_DATE":null,"REV_AT_EPOCH":"6232","LAUNCH_DATE":"2021-03-14","EPHEMERIS_TYPE":"0","TLE_LINE2":"2 47891  53.0537 153.1840 0001760  54.8916 305.2238 15.06407817 62328","OBJECT_ID":"2021-021AH","ECCENTRICITY":"0.00017600","MEAN_MOTION":"15.06407817","SITE":"AFETR","PERIOD":"95.592","TIME_SYSTEM":"UTC","FILE":"3414353","TLE_LINE1":"1 47891U 21021AH  22114.82812030  .00001211  00000-0  10018-3 0  9997","RA_OF_ASC_NODE":"153.1840","SEMIMAJOR_AXIS":"6925.325","OBJECT_TYPE":"PAYLOAD"}];
